#aV2022  2 23  0  0  0.00000000     288 DD+AD WGS84 FIT  NGA
## 2198 259200.00000000   300.00000000 59633 0.0000000000000
+   32     1  2  3  4  5  6  7  8  9 10 11 12 13 14 15 16 17
+         18 19 20 21 22 23 24 25 26 27 28 29 30 31 32  0  0
+          0  0  0  0  0  0  0  0  0  0  0  0  0  0  0  0  0
+          0  0  0  0  0  0  0  0  0  0  0  0  0  0  0  0  0
+          0  0  0  0  0  0  0  0  0  0  0  0  0  0  0  0  0
++         2  2  2  2  2  2  2  2  2  2  2  2  2  2  2  2  2
++         2  2  2  2  2  2  2  2  2  2  2  2  2  2  2  0  0
++         0  0  0  0  0  0  0  0  0  0  0  0  0  0  0  0  0
++         0  0  0  0  0  0  0  0  0  0  0  0  0  0  0  0  0
++         0  0  0  0  0  0  0  0  0  0  0  0  0  0  0  0  0
%c cc cc ccc ccc cccc cccc cccc cccc ccccc ccccc ccccc ccccc
%c cc cc ccc ccc cccc cccc cccc cccc ccccc ccccc ccccc ccccc
%f  0.0000000  0.000000000  0.00000000000  0.000000000000000
%f  0.0000000  0.000000000  0.00000000000  0.000000000000000
%i    0    0    0    0      0      0      0      0         0
%i    0    0    0    0      0      0      0      0         0
/*      NGA, ST. LOUIS,MO.                                  
/*   EPHEMERIS COMPUTED FROM 2 DAYS OF DATA                 
/*   EPOCHA v7 SMOOTHER                                     
/*   G2139 IERS2010 SATIGS SATAPC                           
*  2022  2 23  1 35  0.00000000
P  1  22450.801660  14171.333908   2995.501021    424.753306                    
V  1   2284.592769   3811.632983 -31796.176793     -0.093898                    
P  2  -9410.072866 -19098.452545  16457.746284   -651.329997                    
V  2  17708.860494   8840.750838  21377.334844     -0.006320                    
P  3  13057.165941  10353.375714  20606.090917   -133.842449                    
V  3  -3477.278892  26116.201700 -10759.212090     -0.176333                    
P  4  20932.365052   3532.438244  16018.134004   -187.908244                    
V  4 -18096.043249   9376.642020  21504.855273      0.023630                    
P  5  -6222.396796 -23391.269858 -10919.668123    -72.381013                    
V  5   3389.696999 -13498.748201  27534.190346     -0.013399                    
P  6   6635.096416 -13259.235803  22101.464593    210.134081                    
V  6  22620.031734  16207.240662   3014.871295      0.121485                    
P  7  21199.732571   1485.105984 -15847.973304    312.156981                    
V  7  15544.436269  13747.601568  21077.233958      0.025503                    
P  8  12347.632220  10392.424250 -21181.285893    -57.254970                    
V  8 -23967.220469  11899.935156  -7799.391987     -0.015256                    
P  9  24864.126655  -6384.453547   6810.310371   -352.969388                    
V  9  -6688.049177   6308.850105  29991.957049      0.017442                    
P 10 -11533.820382  19089.259887 -14052.253266   -328.036712                    
V 10   -304.310446 -18301.874938 -24649.083661     -0.107389                    
P 11  -7394.350884 -20100.335504  15715.439190    -80.422971                    
V 11  16707.701666  11072.581964  22006.374758      0.115335                    
P 12 -10968.430662 -14216.164545  19349.448431   -175.095673                    
V 12   5466.414651 -24500.669371 -14571.569609     -0.057151                    
P 13  -3288.066504 -14768.856855 -21977.599271    266.144861                    
V 13  26437.262948  -7639.871293   1344.882199      0.062159                    
P 14  12936.105511 -18132.390322 -14421.115080    -87.002282                    
V 14   -298.677204  18492.370400 -23595.789353     -0.042903                    
P 15 -14250.226977  -9464.370313 -20788.140518    -81.761686                    
V 15  21402.447127 -13951.910235  -8165.713942      0.029031                    
P 16    766.939130  25115.347464  -8097.873519   -472.858754                    
V 16  -4538.902317   9343.486959  29978.246260     -0.047323                    
P 17  21118.683791 -14012.002469   8461.262725    578.663668                    
V 17  10136.243131  -1770.262310 -29714.069525      0.050537                    
P 18 -20670.909901  -1266.983541 -16689.953194    234.348506                    
V 18 -15933.809460 -13956.853202  20697.612752     -0.082690                    
P 19  15818.493552 -15354.512908  14418.128058    122.494842                    
V 19  18460.127974  -4027.608632 -24286.038878      0.049903                    
P 20  -1904.496920 -26620.782256   -694.180967    516.584570                    
V 20   3156.946263  -1044.316599  31146.991893     -0.001622                    
P 21  19791.313531  16948.422645  -5981.304847    158.470643                    
V 21  -8337.677395  -2326.757127 -30105.656677      0.005882                    
P 22 -12142.517200  16791.258430  16909.236135    217.651306                    
V 22 -20194.003785   5234.466731 -20361.656444      0.057260                    
P 23 -14771.629965   8173.460311 -20491.648436     -1.133982                    
V 23    982.835914 -25999.676722 -11176.599321     -0.034298                    
P 24 -22099.202816 -15061.936613  -1804.183105    272.974527                    
V 24   3346.113250  -1786.337346 -30784.641417     -0.024087                    
P 25 -15189.060702   -114.726380  21493.968454    289.333662                    
V 25   2414.833734 -27893.253282   1812.759259      0.053076                    
P 26  -5023.283693  25383.226602   5129.776199    185.500169                    
V 26  -3367.488893  -6871.398927  30526.600479      0.031550                    
P 27    317.106424  15845.870200 -21444.429947    130.241421                    
V 27 -24743.938945  10330.206601   7721.836762      0.151484                    
P 28   9321.438027 -23981.953779  -6528.679119    394.602332                    
V 28    572.350964   9202.114036 -30337.792610     -0.082752                    
P 29 -24881.299300   2641.747964   8950.208778   -483.542211                    
V 29  10054.592773  -5683.081382  29420.118156     -0.046705                    
P 30  15588.405792  -7001.265082 -20314.263908   -515.005882                    
V 30  20176.699704  16416.479506   9545.432247     -0.022558                    
P 31  -4971.557271  15011.915235  21149.730725   -165.978466                    
V 31 -22195.188550 -15820.264456   6436.731265     -0.017580                    
P 32 -17418.395498  16598.238265  11167.117305    -72.585347                    
V 32 -13862.194079   3488.059664 -27306.708895     -0.069269                    
EOF
